{
  "type": "FeatureCollection",
  "features": [
    {
      "type": "Feature",
      "properties": {
        "norad_id": 33860,
        "name": "IRIDIUM 33 DEB",
        "group": "iridium-33-debris",
        "lat": 3.0112536457207435,
        "lon": -157.3642512244933,
        "alt_km": 675.3696201966304,
        "timestamp": "2025-12-22T16:55:17.848799+00:00",
        "meta_object_name": "IRIDIUM 33 DEB",
        "meta_object_id": "1997-051AD",
        "meta_epoch": "2025-12-22T01:29:22.706304",
        "meta_mean_motion": 14.67472484,
        "meta_eccentricity": 0.00063127,
        "meta_inclination": 86.3821,
        "meta_ra_of_asc_node": 23.1111,
        "meta_arg_of_pericenter": 322.0351,
        "meta_mean_anomaly": 60.1727,
        "meta_ephemeris_type": 0,
        "meta_classification_type": "U",
        "meta_norad_cat_id": 33860,
        "meta_element_set_no": 999,
        "meta_rev_at_epoch": 88859,
        "meta_bstar": 0.0011041679,
        "meta_mean_motion_dot": 6.276e-05,
        "meta_mean_motion_ddot": 0,
        "tle_line1": "1 33860U 97051AD  25356.06206836  .00006276  00000+0  11042-2 0  9994",
        "tle_line2": "2 33860  86.3821  23.1111 0006312 322.0351  60.1727 14.67472484888595"
      },
      "geometry": {
        "type": "Point",
        "coordinates": [
          -157.3642512244933,
          3.0112536457207435
        ]
      }
    },
    {
      "type": "Feature",
      "properties": {
        "norad_id": 33862,
        "name": "IRIDIUM 33 DEB",
        "group": "iridium-33-debris",
        "lat": -71.94415055261152,
        "lon": 22.02497808147385,
        "alt_km": 680.8865085260259,
        "timestamp": "2025-12-22T16:55:17.848810+00:00",
        "meta_object_name": "IRIDIUM 33 DEB",
        "meta_object_id": "1997-051AF",
        "meta_epoch": "2025-12-21T13:59:31.257024",
        "meta_mean_motion": 14.69601315,
        "meta_eccentricity": 0.0052554,
        "meta_inclination": 86.4078,
        "meta_ra_of_asc_node": 33.6303,
        "meta_arg_of_pericenter": 39.5195,
        "meta_mean_anomaly": 76.2806,
        "meta_ephemeris_type": 0,
        "meta_classification_type": "U",
        "meta_norad_cat_id": 33862,
        "meta_element_set_no": 999,
        "meta_rev_at_epoch": 88953,
        "meta_bstar": 0.0010364,
        "meta_mean_motion_dot": 6.314e-05,
        "meta_mean_motion_ddot": 0,
        "tle_line1": "1 33862U 97051AF  25355.58300066  .00006314  00000+0  10364-2 0  9991",
        "tle_line2": "2 33862  86.4078  33.6303 0052554  39.5195  76.2806 14.69601315889536"
      },
      "geometry": {
        "type": "Point",
        "coordinates": [
          22.02497808147385,
          -71.94415055261152
        ]
      }
    },
    {
      "type": "Feature",
      "properties": {
        "norad_id": 33866,
        "name": "IRIDIUM 33 DEB",
        "group": "iridium-33-debris",
        "lat": -29.383972397057278,
        "lon": -89.0919488807766,
        "alt_km": 797.5327084871387,
        "timestamp": "2025-12-22T16:55:17.848822+00:00",
        "meta_object_name": "IRIDIUM 33 DEB",
        "meta_object_id": "1997-051AK",
        "meta_epoch": "2025-12-22T05:58:49.941696",
        "meta_mean_motion": 14.25302348,
        "meta_eccentricity": 0.01150469,
        "meta_inclination": 86.3001,
        "meta_ra_of_asc_node": 89.0128,
        "meta_arg_of_pericenter": 131.2544,
        "meta_mean_anomaly": 259.1044,
        "meta_ephemeris_type": 0,
        "meta_classification_type": "U",
        "meta_norad_cat_id": 33866,
        "meta_element_set_no": 999,
        "meta_rev_at_epoch": 86946,
        "meta_bstar": 0.00050535562,
        "meta_mean_motion_dot": 1.294e-05,
        "meta_mean_motion_ddot": 0,
        "tle_line1": "1 33866U 97051AK  25356.24918914  .00001294  00000+0  50536-3 0  9994",
        "tle_line2": "2 33866  86.3001  89.0128 0115046 131.2544 259.1044 14.25302348869461"
      },
      "geometry": {
        "type": "Point",
        "coordinates": [
          -89.0919488807766,
          -29.383972397057278
        ]
      }
    },
    {
      "type": "Feature",
      "properties": {
        "norad_id": 33867,
        "name": "IRIDIUM 33 DEB",
        "group": "iridium-33-debris",
        "lat": -24.19740163746972,
        "lon": -16.79152762945832,
        "alt_km": 297.17605223853025,
        "timestamp": "2025-12-22T16:55:17.848834+00:00",
        "meta_object_name": "IRIDIUM 33 DEB",
        "meta_object_id": "1997-051AL",
        "meta_epoch": "2025-12-21T22:55:51.892608",
        "meta_mean_motion": 15.90971468,
        "meta_eccentricity": 0.00142431,
        "meta_inclination": 86.3678,
        "meta_ra_of_asc_node": 345.2476,
        "meta_arg_of_pericenter": 91.4909,
        "meta_mean_anomaly": 268.8005,
        "meta_ephemeris_type": 0,
        "meta_classification_type": "U",
        "meta_norad_cat_id": 33867,
        "meta_element_set_no": 999,
        "meta_rev_at_epoch": 89656,
        "meta_bstar": 0.0080181802,
        "meta_mean_motion_dot": 0.02400384,
        "meta_mean_motion_ddot": 0.0036963455,
        "tle_line1": "1 33867U 97051AL  25355.95546172  .02400384  36963-2  80182-2 0  9999",
        "tle_line2": "2 33867  86.3678 345.2476 0014243  91.4909 268.8005 15.90971468896567"
      },
      "geometry": {
        "type": "Point",
        "coordinates": [
          -16.79152762945832,
          -24.19740163746972
        ]
      }
    },
    {
      "type": "Feature",
      "properties": {
        "norad_id": 33870,
        "name": "IRIDIUM 33 DEB",
        "group": "iridium-33-debris",
        "lat": -35.79876837597516,
        "lon": 51.36796862867681,
        "alt_km": 761.3636376368277,
        "timestamp": "2025-12-22T16:55:17.848844+00:00",
        "meta_object_name": "IRIDIUM 33 DEB",
        "meta_object_id": "1997-051AP",
        "meta_epoch": "2025-12-21T16:45:39.932640",
        "meta_mean_motion": 14.4589225,
        "meta_eccentricity": 0.00223371,
        "meta_inclination": 86.3739,
        "meta_ra_of_asc_node": 54.4207,
        "meta_arg_of_pericenter": 149.5314,
        "meta_mean_anomaly": 337.9924,
        "meta_ephemeris_type": 0,
        "meta_classification_type": "U",
        "meta_norad_cat_id": 33870,
        "meta_element_set_no": 999,
        "meta_rev_at_epoch": 88266,
        "meta_bstar": 0.00052328901,
        "meta_mean_motion_dot": 1.884e-05,
        "meta_mean_motion_ddot": 0,
        "tle_line1": "1 33870U 97051AP  25355.69837885  .00001884  00000+0  52329-3 0  9991",
        "tle_line2": "2 33870  86.3739  54.4207 0022337 149.5314 337.9924 14.45892250882662"
      },
      "geometry": {
        "type": "Point",
        "coordinates": [
          51.36796862867681,
          -35.79876837597516
        ]
      }
    },
    {
      "type": "Feature",
      "properties": {
        "norad_id": 33881,
        "name": "IRIDIUM 33 DEB",
        "group": "iridium-33-debris",
        "lat": -39.490846396929776,
        "lon": -74.60351012190769,
        "alt_km": 700.3968527272445,
        "timestamp": "2025-12-22T16:55:17.848856+00:00",
        "meta_object_name": "IRIDIUM 33 DEB",
        "meta_object_id": "1997-051BA",
        "meta_epoch": "2025-12-22T01:53:28.694112",
        "meta_mean_motion": 14.56726775,
        "meta_eccentricity": 0.00613657,
        "meta_inclination": 86.3868,
        "meta_ra_of_asc_node": 102.6839,
        "meta_arg_of_pericenter": 144.447,
        "meta_mean_anomaly": 32.1992,
        "meta_ephemeris_type": 0,
        "meta_classification_type": "U",
        "meta_norad_cat_id": 33881,
        "meta_element_set_no": 999,
        "meta_rev_at_epoch": 87636,
        "meta_bstar": 0.0020421303,
        "meta_mean_motion_dot": 9.388e-05,
        "meta_mean_motion_ddot": 0,
        "tle_line1": "1 33881U 97051BA  25356.07880433  .00009388  00000+0  20421-2 0  9997",
        "tle_line2": "2 33881  86.3868 102.6839 0061365 144.4470  32.1992 14.56726775876364"
      },
      "geometry": {
        "type": "Point",
        "coordinates": [
          -74.60351012190769,
          -39.490846396929776
        ]
      }
    },
    {
      "type": "Feature",
      "properties": {
        "norad_id": 33884,
        "name": "IRIDIUM 33 DEB",
        "group": "iridium-33-debris",
        "lat": -12.802393711717235,
        "lon": -173.854237407144,
        "alt_km": 641.7201744394315,
        "timestamp": "2025-12-22T16:55:17.848867+00:00",
        "meta_object_name": "IRIDIUM 33 DEB",
        "meta_object_id": "1997-051BD",
        "meta_epoch": "2025-12-21T19:42:17.168256",
        "meta_mean_motion": 14.77591703,
        "meta_eccentricity": 0.00089767,
        "meta_inclination": 86.3691,
        "meta_ra_of_asc_node": 5.7181,
        "meta_arg_of_pericenter": 287.8241,
        "meta_mean_anomaly": 245.5748,
        "meta_ephemeris_type": 0,
        "meta_classification_type": "U",
        "meta_norad_cat_id": 33884,
        "meta_element_set_no": 999,
        "meta_rev_at_epoch": 88981,
        "meta_bstar": 0.0012315655,
        "meta_mean_motion_dot": 8.831e-05,
        "meta_mean_motion_ddot": 0,
        "tle_line1": "1 33884U 97051BD  25355.82103204  .00008831  00000+0  12316-2 0  9992",
        "tle_line2": "2 33884  86.3691   5.7181 0008976 287.8241 245.5748 14.77591703889818"
      },
      "geometry": {
        "type": "Point",
        "coordinates": [
          -173.854237407144,
          -12.802393711717235
        ]
      }
    }
  ]
}